OBJECT_NAME,OBJECT_ID,EPOCH,MEAN_MOTION,ECCENTRICITY,INCLINATION,RA_OF_ASC_NODE,ARG_OF_PERICENTER,MEAN_ANOMALY,EPHEMERIS_TYPE,CLASSIFICATION_TYPE,NORAD_CAT_ID,ELEMENT_SET_NO,REV_AT_EPOCH,BSTAR,MEAN_MOTION_DOT,MEAN_MOTION_DDOT
BEIDOU-2 G8 (C01),2019-027A,2026-06-12T19:01:09.167808,1.00272423,.0010279,1.6455,74.5045,282.7147,333.7307,0,U,44231,999,2603,0,-.234E-5,0
COSMOS 2534 (758),2019-030A,2026-06-11T11:13:19.189344,2.13102304,.0013354,64.3681,192.8091,275.1032,156.1197,0,U,44299,999,5480,0,.121E-5,0
BEIDOU-3 IGSO-2 (C39),2019-035A,2026-06-11T23:39:28.530432,1.00267954,.00399259,55.2458,158.9084,216.2500,359.8397,0,U,44337,999,2561,0,-.41E-6,0
GPS BIII-2  (PRN 18),2019-056A,2026-06-11T15:53:36.970944,2.00569454,.00617956,55.6400,331.3626,197.5682,160.4551,0,U,44506,999,4995,0,-.66E-6,0
BEIDOU-3 M24 (C46),2019-061A,2026-06-11T08:03:49.249152,1.86229258,.0008267,54.3962,182.9254,358.9131,1.1499,0,U,44542,999,4568,0,.129E-5,0
BEIDOU-3 M23 (C45),2019-061B,2026-06-11T17:37:45.111360,1.86227372,.00055966,54.3946,182.8802,337.8055,201.1034,0,U,44543,999,4569,0,.128E-5,0
BEIDOU-3 IGSO-3 (C40),2019-073A,2026-05-16T19:27:04.075776,1.00246251,.0042953,54.8566,281.2355,189.4588,170.3676,0,U,44709,999,2414,0,-.217E-5,0
BEIDOU-3 M22 (C44),2019-078A,2026-06-12T18:52:38.662176,1.86227405,.0006463,53.9404,299.9835,50.1011,309.9391,0,U,44793,999,4456,0,-.68E-6,0
BEIDOU-3 M21 (C43),2019-078B,2026-06-11T20:27:42.093792,1.86227891,.00043389,53.9144,299.9773,47.8578,312.1638,0,U,44794,999,4455,0,-.67E-6,0
COSMOS 2544 (759),2019-088A,2026-06-09T23:46:15.168576,2.13102164,.00134315,65.5614,73.9710,259.4785,100.3880,0,U,44850,999,5056,0,-.23E-6,0
BEIDOU-3 M19 (C41),2019-090A,2026-06-12T19:09:26.029152,1.86231512,.0017895,56.5546,62.9362,297.9267,173.3886,0,U,44864,999,4415,0,-.56E-6,0
BEIDOU-3 M20 (C42),2019-090B,2026-06-10T02:22:05.520864,1.86231666,.00159258,56.5539,63.0605,311.2740,239.7297,0,U,44865,999,4408,0,-.5E-6,0
BEIDOU-3 G2 (C60),2020-017A,2026-06-12T20:25:24.481056,1.00272699,.0002204,2.8541,47.2727,32.2882,208.0377,0,U,45344,999,2321,0,-.129E-5,0
COSMOS 2545 (760),2020-018A,2026-06-11T14:14:17.205216,2.13102630,.00081557,64.3587,312.6159,231.1724,128.7459,0,U,45358,999,4854,0,-.45E-6,0
BEIDOU-3 G3 (C61),2020-040A,2026-06-12T20:34:08.643936,1.00269061,.0002522,2.4351,67.4425,336.8087,276.0267,0,U,45807,999,2202,0,-.341E-5,0
GPS BIII-3  (PRN 23),2020-041A,2026-06-11T13:28:43.319136,2.00558626,.0063604,56.6657,29.1622,204.6361,19.3768,0,U,45854,999,4392,0,-.63E-6,0
COSMOS 2547 (705K),2020-075A,2026-06-11T07:31:27.036768,2.13100304,.0009249,64.5991,192.6716,239.6437,120.3411,0,U,46805,999,4378,0,.121E-5,0
GPS BIII-4  (PRN 14),2020-078A,2026-06-12T06:54:36.692352,2.00564740,.00733892,53.9803,210.9777,207.1142,157.4901,0,U,46826,999,4141,0,.9E-6,0
GPS BIII-5  (PRN 11),2021-054A,2026-06-11T23:39:53.616672,2.00569140,.00252832,55.1772,332.6690,228.5780,104.2515,0,U,48859,999,3664,0,-.68E-6,0
GSAT0223 (GALILEO 27),2021-116A,2026-06-11T03:10:17.992416,1.70475860,.00014044,57.1623,341.8389,187.4451,176.2704,0,U,49809,999,2808,0,-.65E-6,0
GSAT0224 (GALILEO 28),2021-116B,2026-06-11T12:44:48.532128,1.70475859,.0000988,57.1633,341.8270,155.4898,205.7028,0,U,49810,999,2811,0,-.66E-6,0
COSMOS 2557 (706K),2022-075A,2026-06-11T11:28:03.775872,2.13102128,.00102612,64.3020,314.6865,274.6780,85.1972,0,U,52984,999,3059,0,-.45E-6,0
COSMOS 2559 (707K),2022-130A,2026-06-10T08:36:50.817600,2.13101643,.00124272,64.2757,314.8093,178.3735,181.6269,0,U,54031,999,2854,0,-.39E-6,0
COSMOS 2564 (761),2022-161A,2026-06-12T01:54:09.385056,2.13101999,.00121278,64.7413,192.8813,224.5406,135.4394,0,U,54377,999,2752,0,.121E-5,0
GPS BIII-6  (PRN 28),2023-009A,2026-06-12T03:02:56.980032,2.00571739,.00062561,55.1221,148.7180,318.0841,154.7932,0,U,55268,999,2514,0,.93E-6,0
BEIDOU-3 G4 (C62),2023-066A,2026-06-12T18:59:54.288384,1.00257341,.0003574,0.4922,330.2704,191.3293,164.4688,0,U,56564,999,1134,0,-.27E-5,0
