
# G11 (GNSS)
1 48859U 21054A   26162.98603723 -.00000068  00000+0  00000+0 0  9994
2 48859  55.1772 332.6690 0025283 228.5780 104.2515  2.00569140 36648

# G14 (GNSS)
1 46826U 20078A   26163.28792468  .00000090  00000+0  00000+0 0  9994
2 46826  53.9803 210.9777 0073389 207.1142 157.4901  2.00564740 41411

# G18 (GNSS)
1 44506U 19056A   26162.66223346 -.00000066  00000+0  00000+0 0  9990
2 44506  55.6400 331.3626 0061795 197.5682 160.4551  2.00569454 49955

# G23 (GNSS)
1 45854U 20041A   26162.56161249 -.00000063  00000+0  00000+0 0  9992
2 45854  56.6657  29.1622 0063604 204.6361  19.3768  2.00558626 43922

# G28 (GNSS)
1 55268U 23009A   26163.12704838  .00000093  00000+0  00000+0 0  9991
2 55268  55.1221 148.7180 0006256 318.0841 154.7932  2.00571739 25144

# C01 (GNSS)
1 44231U 19027A   26163.79246722 -.00000234  00000+0  00000+0 0  9998
2 44231   1.6455  74.5045 0010279 282.7147 333.7307  1.00272423 26030

# C39 (GNSS)
1 44337U 19035A   26162.98574688 -.00000041  00000+0  00000+0 0  9995
2 44337  55.2458 158.9084 0039925 216.2500 359.8397  1.00267954 25613

# C46 (GNSS)
1 44542U 19061A   26162.33598668  .00000129  00000+0  00000+0 0  9991
2 44542  54.3962 182.9254 0008267 358.9131   1.1499  1.86229258 45684

# C45 (GNSS)
1 44543U 19061B   26162.73454990  .00000128  00000+0  00000+0 0  9994
2 44543  54.3946 182.8802 0005596 337.8055 201.1034  1.86227372 45691

# C40 (GNSS)
1 44709U 19073A   26136.81046384 -.00000217  00000+0  00000+0 0  9995
2 44709  54.8566 281.2355 0042953 189.4588 170.3676  1.00246251 24144

# C44 (GNSS)
1 44793U 19078A   26163.78655859 -.00000068  00000+0  00000+0 0  9996
2 44793  53.9404 299.9835 0006463  50.1011 309.9391  1.86227405 44564

# C43 (GNSS)
1 44794U 19078B   26162.85257053 -.00000067  00000+0  00000+0 0  9997
2 44794  53.9144 299.9773 0004338  47.8578 312.1638  1.86227891 44555

# C41 (GNSS)
1 44864U 19090A   26163.79821793 -.00000056  00000+0  00000+0 0  9999
2 44864  56.5546  62.9362 0017895 297.9267 173.3886  1.86231512 44158

# C42 (GNSS)
1 44865U 19090B   26161.09867501 -.00000050  00000+0  00000+0 0  9992
2 44865  56.5539  63.0605 0015925 311.2740 239.7297  1.86231666 44086

# C60 (GNSS)
1 45344U 20017A   26163.85097779 -.00000129  00000+0  00000+0 0  9991
2 45344   2.8541  47.2727 0002204  32.2882 208.0377  1.00272699 23215

# C61 (GNSS)
1 45807U 20040A   26163.85704449 -.00000341  00000+0  00000+0 0  9996
2 45807   2.4351  67.4425 0002522 336.8087 276.0267  1.00269061 22026

# C62 (GNSS)
1 56564U 23066A   26163.79160056 -.00000270  00000+0  00000+0 0  9993
2 56564   0.4922 330.2704 0003574 191.3293 164.4688  1.00257341 11340

# E34 (GNSS)
1 49809U 21116A   26162.13215269 -.00000065  00000+0  00000+0 0  9997
2 49809  57.1623 341.8389 0001404 187.4451 176.2704  1.70475860 28084

# E10 (GNSS)
1 49810U 21116B   26162.53111727 -.00000066  00000+0  00000+0 0  9998
2 49810  57.1633 341.8270 0000988 155.4898 205.7028  1.70475859 28111

# R04 (GNSS)
1 44850U 19088A   26160.99045334 -.00000023  00000+0  00000+0 0  9993
2 44850  65.5614  73.9710 0013431 259.4785 100.3880  2.13102164 50565

# R11 (GNSS)
1 46805U 20075A   26162.31350737  .00000121  00000+0  00000+0 0  9995
2 46805  64.5991 192.6716 0009249 239.6437 120.3411  2.13100304 43787

# R12 (GNSS)
1 44299U 19030A   26162.46758321  .00000121  00000+0  00000+0 0  9996
2 44299  64.3681 192.8091 0013354 275.1032 156.1197  2.13102304 54807

# R16 (GNSS)
1 54377U 22161A   26163.07927529  .00000121  00000+0  00000+0 0  9999
2 54377  64.7413 192.8813 0012127 224.5406 135.4394  2.13101999 27521

# R19 (GNSS)
1 54031U 22130A   26161.35892150 -.00000039  00000+0  00000+0 0  9991
2 54031  64.2757 314.8093 0012427 178.3735 181.6269  2.13101643 28547

# R22 (GNSS)
1 52984U 22075A   26162.47782148 -.00000045  00000+0  00000+0 0  9990
2 52984  64.3020 314.6865 0010261 274.6780  85.1972  2.13102128 30591

# R24 (GNSS)
1 45358U 20018A   26162.59325469 -.00000045  00000+0  00000+0 0  9994
2 45358  64.3587 312.6159 0008155 231.1724 128.7459  2.13102630 48541
